ONEWEB-0578             
1 56067U 23043X   25123.81311497  .00000074  00000+0  14844-3 0  9997
2 56067  87.9255 325.6179 0001947  88.7774 271.3583 13.21826987104154
ONEWEB-0579             
1 56068U 23043Y   25123.80364287  .00000119  00000+0  25551-3 0  9999
2 56068  87.9251 325.6073 0001554  80.9995 279.1315 13.21826985104165
ONEWEB-0581             
1 56069U 23043Z   25123.90662896  .00000052  00000+0  10216-3 0  9996
2 56069  87.9015 310.3793 0001976  76.6839 283.4512 13.16592206105103
ONEWEB-0609             
1 56070U 23043AA  25123.84321552  .00000054  00000+0  10932-3 0  9999
2 56070  87.9072 340.8024 0001705  87.2348 272.8977 13.15548241102615
ONEWEB-0613             
1 56071U 23043AB  25123.83845358 -.00000055  00000+0 -17944-3 0  9997
2 56071  87.9076 340.8123 0001563  80.3619 279.7688 13.15546123102619
ONEWEB-0630             
1 56072U 23043AC  25123.83371347  .00000103  00000+0  24036-3 0  9992
2 56072  87.9071 340.7926 0001450  83.0786 277.0509 13.15548229102606
ONEWEB-0632             
1 56073U 23043AD  25123.82896434  .00000135  00000+0  32337-3 0  9999
2 56073  87.9071 340.8132 0001785  76.7558 283.3771 13.15547760102604
ONEWEB-0633             
1 56074U 23043AE  25123.89867745  .00000266  00000+0  67383-3 0  9994
2 56074  87.9066 340.7689 0001352  89.9851 270.1434 13.15548550103505
